start=new Date('2023-02-23T00:00:00.000Z').valueOf();
sats=[{"TLE_LINE1":"1 45786U 20038BJ  23053.73615167  .00023132  00000-0  15682-2 0  9997","ARG_OF_PERICENTER":"83.3776","INCLINATION":"53.0540","MEAN_ELEMENT_THEORY":"SGP4","OBJECT_ID":"2020-038BJ","MEAN_MOTION_DDOT":"0.0000000000000","DECAY_DATE":null,"LAUNCH_DATE":"2020-06-13","REF_FRAME":"TEME","NORAD_CAT_ID":"45786","REV_AT_EPOCH":"14931","EPHEMERIS_TYPE":"0","CENTER_NAME":"EARTH","PERIOD":"95.594","OBJECT_NAME":"STARLINK-1513","MEAN_MOTION":"15.06365916","CLASSIFICATION_TYPE":"U","GP_ID":"226470641","SEMIMAJOR_AXIS":"6925.453","FILE":"3825529","APOAPSIS":"548.114","OBJECT_TYPE":"PAYLOAD","COUNTRY_CODE":"US","ECCENTRICITY":"0.00011490","BSTAR":"0.00156820000000","RA_OF_ASC_NODE":"143.8806","MEAN_ANOMALY":"276.7344","PERIAPSIS":"546.522","SITE":"AFETR","MEAN_MOTION_DOT":"0.00023132","RCS_SIZE":"LARGE","ELEMENT_SET_NO":"999","TIME_SYSTEM":"UTC","EPOCH":"2023-02-22T17:40:03.504288","TLE_LINE2":"2 45786  53.0540 143.8806 0001149  83.3776 276.7344 15.06365916149311"},{"REF_FRAME":"TEME","LAUNCH_DATE":"2020-06-13","NORAD_CAT_ID":"45787","REV_AT_EPOCH":"14928","EPHEMERIS_TYPE":"0","PERIOD":"95.594","OBJECT_NAME":"STARLINK-1517","CENTER_NAME":"EARTH","MEAN_MOTION":"15.06372518","SEMIMAJOR_AXIS":"6925.433","GP_ID":"226418129","CLASSIFICATION_TYPE":"U","ARG_OF_PERICENTER":"88.0681","TLE_LINE1":"1 45787U 20038BK  23053.54450138 -.00000430  00000-0 -10020-4 0  9993","INCLINATION":"53.0541","OBJECT_ID":"2020-038BK","MEAN_ELEMENT_THEORY":"SGP4","MEAN_MOTION_DDOT":"0.0000000000000","DECAY_DATE":null,"MEAN_ANOMALY":"272.0455","PERIAPSIS":"546.411","SITE":"AFETR","MEAN_MOTION_DOT":"-0.00000430","RCS_SIZE":"LARGE","ELEMENT_SET_NO":"999","TIME_SYSTEM":"UTC","EPOCH":"2023-02-22T13:04:04.919232","TLE_LINE2":"2 45787  53.0541 144.7430 0001281  88.0681 272.0455 15.06372518149284","FILE":"3824148","COUNTRY_CODE":"US","OBJECT_TYPE":"PAYLOAD","APOAPSIS":"548.185","ECCENTRICITY":"0.00012810","RA_OF_ASC_NODE":"144.7430","BSTAR":"-0.00001002000000"},{"PERIOD":"95.592","OBJECT_NAME":"STARLINK-1522","CENTER_NAME":"EARTH","SEMIMAJOR_AXIS":"6925.346","GP_ID":"226471139","CLASSIFICATION_TYPE":"U","MEAN_MOTION":"15.06400987","LAUNCH_DATE":"2020-08-07","REF_FRAME":"TEME","EPHEMERIS_TYPE":"0","NORAD_CAT_ID":"46027","REV_AT_EPOCH":"14144","MEAN_MOTION_DDOT":"0.0000000000000","OBJECT_ID":"2020-055A","MEAN_ELEMENT_THEORY":"SGP4","DECAY_DATE":null,"ARG_OF_PERICENTER":"77.2653","TLE_LINE1":"1 46027U 20055A   23053.78314129  .00020266  00000-0  13755-2 0  9998","INCLINATION":"53.0514","TIME_SYSTEM":"UTC","TLE_LINE2":"2 46027  53.0514  73.6787 0001409  77.2653 282.8494 15.06400987141442","EPOCH":"2023-02-22T18:47:43.407456","PERIAPSIS":"546.235","MEAN_ANOMALY":"282.8494","ELEMENT_SET_NO":"999","SITE":"AFETR","MEAN_MOTION_DOT":"0.00020266","RCS_SIZE":"LARGE","ECCENTRICITY":"0.00014090","RA_OF_ASC_NODE":"73.6787","BSTAR":"0.00137550000000","FILE":"3825529","OBJECT_TYPE":"PAYLOAD","COUNTRY_CODE":"US","APOAPSIS":"548.186"},{"EPOCH":"2023-02-22T12:46:47.213760","TLE_LINE2":"2 46028  53.0552  74.7932 0001610  82.0628 278.0543 15.06393628141422","TIME_SYSTEM":"UTC","RCS_SIZE":"LARGE","SITE":"AFETR","MEAN_MOTION_DOT":"0.00001933","ELEMENT_SET_NO":"999","MEAN_ANOMALY":"278.0543","PERIAPSIS":"546.118","BSTAR":"0.00014865000000","RA_OF_ASC_NODE":"74.7932","ECCENTRICITY":"0.00016100","APOAPSIS":"548.348","COUNTRY_CODE":"US","OBJECT_TYPE":"PAYLOAD","FILE":"3824148","MEAN_MOTION":"15.06393628","CLASSIFICATION_TYPE":"U","GP_ID":"226419152","SEMIMAJOR_AXIS":"6925.368","CENTER_NAME":"EARTH","OBJECT_NAME":"STARLINK-1523","PERIOD":"95.593","REV_AT_EPOCH":"14142","NORAD_CAT_ID":"46028","EPHEMERIS_TYPE":"0","REF_FRAME":"TEME","LAUNCH_DATE":"2020-08-07","DECAY_DATE":null,"MEAN_ELEMENT_THEORY":"SGP4","OBJECT_ID":"2020-055B","MEAN_MOTION_DDOT":"0.0000000000000","INCLINATION":"53.0552","TLE_LINE1":"1 46028U 20055B   23053.53249090  .00001933  00000-0  14865-3 0  9990","ARG_OF_PERICENTER":"82.0628"},{"ARG_OF_PERICENTER":"115.0193","TLE_LINE1":"1 46029U 20055C   23053.52510596  .00020846  00000-0  14150-2 0  9992","INCLINATION":"53.0555","MEAN_ELEMENT_THEORY":"SGP4","OBJECT_ID":"2020-055C","MEAN_MOTION_DDOT":"0.0000000000000","DECAY_DATE":null,"REF_FRAME":"TEME","LAUNCH_DATE":"2020-08-07","REV_AT_EPOCH":"14141","NORAD_CAT_ID":"46029","EPHEMERIS_TYPE":"0","CENTER_NAME":"EARTH","PERIOD":"95.593","OBJECT_NAME":"STARLINK-1526","MEAN_MOTION":"15.06380049","GP_ID":"226419383","CLASSIFICATION_TYPE":"U","SEMIMAJOR_AXIS":"6925.410","FILE":"3824148","APOAPSIS":"548.345","COUNTRY_CODE":"US","OBJECT_TYPE":"PAYLOAD","ECCENTRICITY":"0.00015460","BSTAR":"0.00141500000000","RA_OF_ASC_NODE":"74.8249","MEAN_ANOMALY":"245.0956","PERIAPSIS":"546.204","SITE":"AFETR","RCS_SIZE":"LARGE","MEAN_MOTION_DOT":"0.00020846","ELEMENT_SET_NO":"999","TIME_SYSTEM":"UTC","EPOCH":"2023-02-22T12:36:09.154944","TLE_LINE2":"2 46029  53.0555  74.8249 0001546 115.0193 245.0956 15.06380049141414"},{"NORAD_CAT_ID":"46030","REV_AT_EPOCH":"14140","EPHEMERIS_TYPE":"0","LAUNCH_DATE":"2020-08-07","REF_FRAME":"TEME","MEAN_MOTION":"15.06385216","CLASSIFICATION_TYPE":"U","GP_ID":"226471413","SEMIMAJOR_AXIS":"6925.394","CENTER_NAME":"EARTH","PERIOD":"95.593","OBJECT_NAME":"STARLINK-1534","INCLINATION":"53.0521","TLE_LINE1":"1 46030U 20055D   23053.74257436  .00011681  00000-0  80209-3 0  9995","ARG_OF_PERICENTER":"111.5781","DECAY_DATE":null,"MEAN_ELEMENT_THEORY":"SGP4","OBJECT_ID":"2020-055D","MEAN_MOTION_DDOT":"0.0000000000000","RCS_SIZE":"LARGE","SITE":"AFETR","MEAN_MOTION_DOT":"0.00011681","ELEMENT_SET_NO":"999","MEAN_ANOMALY":"248.5353","PERIAPSIS":"546.313","EPOCH":"2023-02-22T17:49:18.424704","TLE_LINE2":"2 46030  53.0521  73.8596 0001366 111.5781 248.5353 15.06385216141406","TIME_SYSTEM":"UTC","APOAPSIS":"548.205","OBJECT_TYPE":"PAYLOAD","COUNTRY_CODE":"US","FILE":"3825529","BSTAR":"0.00080209000000","RA_OF_ASC_NODE":"73.8596","ECCENTRICITY":"0.00013660"},{"PERIOD":"95.592","OBJECT_NAME":"STARLINK-1544","CENTER_NAME":"EARTH","SEMIMAJOR_AXIS":"6925.343","CLASSIFICATION_TYPE":"U","GP_ID":"226471638","MEAN_MOTION":"15.06401905","REF_FRAME":"TEME","LAUNCH_DATE":"2020-08-07","EPHEMERIS_TYPE":"0","REV_AT_EPOCH":"14143","NORAD_CAT_ID":"46031","MEAN_MOTION_DDOT":"0.0000000000000","OBJECT_ID":"2020-055E","MEAN_ELEMENT_THEORY":"SGP4","DECAY_DATE":null,"ARG_OF_PERICENTER":"106.0768","TLE_LINE1":"1 46031U 20055E   23053.74532888  .00013518  00000-0  92461-3 0  9997","INCLINATION":"53.0529","TIME_SYSTEM":"UTC","TLE_LINE2":"2 46031  53.0529  73.8372 0001394 106.0768 254.0374 15.06401905141434","EPOCH":"2023-02-22T17:53:16.415232","PERIAPSIS":"546.242","MEAN_ANOMALY":"254.0374","ELEMENT_SET_NO":"999","MEAN_MOTION_DOT":"0.00013518","SITE":"AFETR","RCS_SIZE":"LARGE","ECCENTRICITY":"0.00013940","RA_OF_ASC_NODE":"73.8372","BSTAR":"0.00092461000000","FILE":"3825529","OBJECT_TYPE":"PAYLOAD","COUNTRY_CODE":"US","APOAPSIS":"548.173"},{"EPOCH":"2023-02-22T18:37:06.471840","TLE_LINE2":"2 46032  53.0529  73.7104 0000842 106.9238 253.1843 15.06403737141453","TIME_SYSTEM":"UTC","MEAN_MOTION_DOT":"0.00009239","SITE":"AFETR","RCS_SIZE":"LARGE","ELEMENT_SET_NO":"999","MEAN_ANOMALY":"253.1843","PERIAPSIS":"546.619","RA_OF_ASC_NODE":"73.7104","BSTAR":"0.00063826000000","ECCENTRICITY":"0.00008420","OBJECT_TYPE":"PAYLOAD","COUNTRY_CODE":"US","APOAPSIS":"547.785","FILE":"3825529","MEAN_MOTION":"15.06403737","SEMIMAJOR_AXIS":"6925.337","GP_ID":"226470414","CLASSIFICATION_TYPE":"U","PERIOD":"95.592","OBJECT_NAME":"STARLINK-1555","CENTER_NAME":"EARTH","NORAD_CAT_ID":"46032","REV_AT_EPOCH":"14145","EPHEMERIS_TYPE":"0","LAUNCH_DATE":"2020-08-07","REF_FRAME":"TEME","DECAY_DATE":null,"OBJECT_ID":"2020-055F","MEAN_ELEMENT_THEORY":"SGP4","MEAN_MOTION_DDOT":"0.0000000000000","INCLINATION":"53.0529","TLE_LINE1":"1 46032U 20055F   23053.77576935  .00009239  00000-0  63826-3 0  9990","ARG_OF_PERICENTER":"106.9238"},{"CENTER_NAME":"EARTH","PERIOD":"95.593","OBJECT_NAME":"STARLINK-1556","MEAN_MOTION":"15.06394287","CLASSIFICATION_TYPE":"U","GP_ID":"226470664","SEMIMAJOR_AXIS":"6925.366","REF_FRAME":"TEME","LAUNCH_DATE":"2020-08-07","NORAD_CAT_ID":"46033","REV_AT_EPOCH":"14142","EPHEMERIS_TYPE":"0","MEAN_ELEMENT_THEORY":"SGP4","OBJECT_ID":"2020-055G","MEAN_MOTION_DDOT":"0.0000000000000","DECAY_DATE":null,"TLE_LINE1":"1 46033U 20055G   23053.75733321  .00018828  00000-0  12797-2 0  9997","ARG_OF_PERICENTER":"74.5166","INCLINATION":"53.0529","TIME_SYSTEM":"UTC","EPOCH":"2023-02-22T18:10:33.589344","TLE_LINE2":"2 46033  53.0529  73.7848 0001280  74.5166 285.5964 15.06394287141425","MEAN_ANOMALY":"285.5964","PERIAPSIS":"546.345","RCS_SIZE":"LARGE","SITE":"AFETR","MEAN_MOTION_DOT":"0.00018828","ELEMENT_SET_NO":"999","ECCENTRICITY":"0.00012800","BSTAR":"0.00127970000000","RA_OF_ASC_NODE":"73.7848","FILE":"3825529","APOAPSIS":"548.118","COUNTRY_CODE":"US","OBJECT_TYPE":"PAYLOAD"},{"TIME_SYSTEM":"UTC","EPOCH":"2023-02-22T18:15:52.007040","TLE_LINE2":"2 46034  53.0547  73.7725 0001333  92.6486 267.4656 15.06383036141422","MEAN_ANOMALY":"267.4656","PERIAPSIS":"546.342","SITE":"AFETR","MEAN_MOTION_DOT":"0.00011432","RCS_SIZE":"LARGE","ELEMENT_SET_NO":"999","ECCENTRICITY":"0.00013330","RA_OF_ASC_NODE":"73.7725","BSTAR":"0.00078547000000","FILE":"3825529","COUNTRY_CODE":"US","OBJECT_TYPE":"PAYLOAD","APOAPSIS":"548.189","OBJECT_NAME":"STARLINK-1557","PERIOD":"95.593","CENTER_NAME":"EARTH","MEAN_MOTION":"15.06383036","SEMIMAJOR_AXIS":"6925.401","CLASSIFICATION_TYPE":"U","GP_ID":"226470915","LAUNCH_DATE":"2020-08-07","REF_FRAME":"TEME","REV_AT_EPOCH":"14142","NORAD_CAT_ID":"46034","EPHEMERIS_TYPE":"0","OBJECT_ID":"2020-055H","MEAN_ELEMENT_THEORY":"SGP4","MEAN_MOTION_DDOT":"0.0000000000000","DECAY_DATE":null,"ARG_OF_PERICENTER":"92.6486","TLE_LINE1":"1 46034U 20055H   23053.76101860  .00011432  00000-0  78547-3 0  9996","INCLINATION":"53.0547"}];
